[{"OBJECT_NAME":"STARLINK-4566","OBJECT_ID":"2022-105AX","EPOCH":"2026-03-09T15:12:10.655424","MEAN_MOTION":15.05668872,"ECCENTRICITY":0.0002388,"INCLINATION":97.6042,"RA_OF_ASC_NODE":311.2454,"ARG_OF_PERICENTER":82.4569,"MEAN_ANOMALY":277.6929,"EPHEMERIS_TYPE":0,"CLASSIFICATION_TYPE":"U","NORAD_CAT_ID":53693,"ELEMENT_SET_NO":999,"REV_AT_EPOCH":19330,"BSTAR":-0.00030233,"MEAN_MOTION_DOT":-4.423e-5,"MEAN_MOTION_DDOT":0},{"OBJECT_NAME":"COSMOS 2251 DEB","OBJECT_ID":"1993-036HX","EPOCH":"2026-03-09T21:31:03.673056","MEAN_MOTION":15.04193551,"ECCENTRICITY":0.00046843,"INCLINATION":74.0171,"RA_OF_ASC_NODE":332.1487,"ARG_OF_PERICENTER":332.3762,"MEAN_ANOMALY":27.7177,"EPHEMERIS_TYPE":0,"CLASSIFICATION_TYPE":"U","NORAD_CAT_ID":34036,"ELEMENT_SET_NO":999,"REV_AT_EPOCH":89876,"BSTAR":0.0040391987,"MEAN_MOTION_DOT":0.00056541,"MEAN_MOTION_DDOT":0}]
